{
  "norad_id": 63924,
  "name": "TJS-19",
  "history": [
    {
      "epoch": "2026-03-28T18:03:04.756032Z",
      "apogee_km": 35796.35602217711,
      "perigee_km": 35775.08857154777,
      "latitude_deg": -3.3338047612913746,
      "longitude_deg": 141.22501696487674,
      "height_km": 35779.63798171226,
      "semi_major_axis_km": 42163.85929686244,
      "eccentricity": 0.0002522,
      "inclination_deg": 3.4239,
      "raan_deg": 316.1791,
      "arg_perigee_deg": 336.7721,
      "mean_anomaly_deg": 305.1825,
      "mean_motion_rev_day": 1.00274898
    }
  ]
}